OBJECT_NAME,OBJECT_ID,EPOCH,MEAN_MOTION,ECCENTRICITY,INCLINATION,RA_OF_ASC_NODE,ARG_OF_PERICENTER,MEAN_ANOMALY,EPHEMERIS_TYPE,CLASSIFICATION_TYPE,NORAD_CAT_ID,ELEMENT_SET_NO,REV_AT_EPOCH,BSTAR,MEAN_MOTION_DOT,MEAN_MOTION_DDOT
CUBEBUG-2 (LO-74),2013-066AA,2026-07-12T20:25:25.434048,14.93957370,.0055957,97.8909,142.9428,303.3134,56.2734,0,U,39440,999,68082,.17551E-3,.1863E-4,0
FUNCUBE-1 (AO-73),2013-066AE,2026-07-13T04:07:27.865056,15.09803151,.0038087,97.8287,166.1678,114.1842,246.3375,0,U,39444,999,68358,.22375E-3,.3608E-4,0
UWE-3,2013-066AG,2026-07-12T19:32:08.748096,14.97190018,.004751,97.8701,150.0656,232.8178,126.8701,0,U,39446,999,68141,.16916E-3,.1937E-4,0
UNISAT-6,2014-033C,2026-07-12T21:11:28.620096,14.88361311,.0044363,97.7905,346.1482,345.5085,14.4856,0,U,40012,999,64998,.13623E-3,.1227E-4,0
DUCHIFAT-1,2014-033M,2026-07-12T16:27:26.176032,15.70510170,.0002165,98.0440,256.5455,257.9613,102.1405,0,U,40021,999,65974,.89146E-3,.110396E-2,0
QB50P1,2014-033R,2026-07-12T12:29:54.904704,15.18640557,.00102199,98.0964,206.4495,132.7489,227.4606,0,U,40025,999,65687,.25721199E-3,.5256E-4,0
LILACSAT-2,2015-049K,2026-07-13T03:05:35.257056,15.52311534,.0008311,97.4628,231.9669,147.6157,212.5607,0,U,40908,999,59977,.23108E-3,.13981E-3,0
FOX-1A (AO-85),2015-058D,2026-07-13T00:59:20.044608,14.91080547,.0132177,64.7723,198.6294,46.6278,314.5753,0,U,40967,999,11742,.15828E-3,.1677E-4,0
CAS-2T & KS-1Q,2016-066G,2026-07-13T05:05:23.360352,14.44767960,.034235,98.3814,269.6505,50.7667,312.3386,0,U,41847,999,50855,.94682E-4,.617E-5,0
RADFXSAT (FOX-1B),2017-073E,2026-07-13T01:39:12.116736,15.13044164,.0148137,97.4673,60.7567,238.8927,119.7700,0,U,43017,999,46930,.1741E-3,.3953E-4,0
DIWATA-2B,2018-084H,2026-07-13T04:15:04.444128,15.00558666,.0012938,98.1217,31.5237,90.5181,269.7524,0,U,43678,999,42011,.10397E-3,.1248E-4,0
ES'HAIL 2,2018-090A,2026-07-13T03:19:17.810112,1.00269840,.0002215,0.0040,120.2823,40.4145,205.9303,0,U,43700,999,2793,0,.142E-5,0
FOX-1CLIFF (AO-95),2018-099N,2026-07-13T03:48:48.255840,15.27248870,.00071,97.4377,254.3164,248.3656,111.6827,0,U,43770,999,41718,.28877E-3,.7642E-4,0
ITASAT,2018-099AE,2026-07-13T02:30:20.916000,15.19367142,.0010798,97.4018,245.1016,258.8383,101.1638,0,U,43786,999,41684,.19803E-3,.4125E-4,0
JY1SAT (JO-97),2018-099AX,2026-07-11T16:29:36.040416,15.34443331,.00065178,97.4124,255.6172,168.9842,191.1545,0,U,43803,999,41738,.301087E-3,.9972E-4,0
UWE-4,2018-111E,2026-07-12T18:23:27.129408,15.47716069,.0005747,97.5844,123.3656,204.5147,155.5830,0,U,43880,999,41473,.53442E-3,.27634E-3,0
TIANYAN 01,2019-093C,2026-07-13T03:52:47.829216,14.86560529,.0013763,97.7529,265.7591,8.2736,351.8704,0,U,44881,999,35527,.11257E-3,.945E-5,0
RS-44 & BREEZE-KM R/B,2019-096E,2026-07-12T21:11:30.964992,12.79748948,.0218557,82.5240,322.6303,84.3723,278.2256,0,U,44909,999,30563,-.49149E-4,.1E-7,0
SALSAT,2020-068K,2026-07-12T21:56:02.165280,15.30153171,.0008922,97.8853,198.5521,201.3461,158.7407,0,U,46495,999,31929,.16824E-3,.4828E-4,0
XW-3 (CAS-9),2021-131B,2026-07-13T05:24:36.534240,14.41380601,.0004694,98.4989,286.4747,35.9250,324.2254,0,U,50466,999,23886,.79509E-4,.213E-5,0
GREENCUBE (IO-117),2022-080E,2026-07-12T17:00:29.176992,6.42583319,.000903,70.1415,289.3709,284.1311,75.8345,0,U,53109,999,9370,0,-.3E-7,0
UMKA 1 (RS40S),2023-091G,2026-07-13T03:31:06.837024,15.21108182,.0013242,97.5041,252.7464,36.2693,323.9437,0,U,57172,999,16795,.1591E-3,.3475E-4,0
CUBESX-HSE 3 (RS42S),2023-091N,2026-07-13T02:41:28.245408,15.31853672,.000989,97.5085,260.0360,9.4843,350.6583,0,U,57178,999,16839,.2842E-3,.8674E-4,0
MONITOR-3 (RS58S),2023-091Q,2026-07-13T03:06:22.993056,15.28349170,.001122,97.5076,257.7725,17.0405,343.1208,0,U,57180,999,16825,.25002E-3,.6838E-4,0
MONITOR-4 (RS57S),2023-091S,2026-07-13T02:34:08.740704,15.28435184,.0011218,97.5070,257.7225,17.3726,342.7895,0,U,57182,999,16825,.24763E-3,.6789E-4,0
MONITOR-2 (RS39S),2023-091U,2026-07-13T04:49:19.801632,15.19143640,.001159,97.5062,252.3172,30.5629,329.6278,0,U,57184,999,16790,.13311E-3,.2731E-4,0
SVYATOBOR 1 (RS60S),2023-091X,2026-07-13T03:26:02.379840,15.27043307,.0008955,97.5083,258.1088,11.9442,348.2008,0,U,57187,999,16827,.216E-3,.5661E-4,0
VIZARD-METEO (RS38S),2023-091Z,2026-07-13T03:12:20.975904,15.36834982,.0005843,97.5087,264.1515,348.1559,11.9547,0,U,57189,999,16867,.33479E-3,.1198E-3,0
POLYTECH-UNIVERSE 3 (RS46S),2023-091AB,2026-07-13T02:13:43.671648,15.19355584,.0016238,97.5037,251.7139,44.6127,315.6411,0,U,57191,999,16788,.149E-3,.309E-4,0
UTMN 2 (RS27S),2023-091AP,2026-07-13T02:46:39.770112,15.32672034,.0006937,97.5081,261.7050,357.9627,2.1585,0,U,57203,999,16851,.27312E-3,.8543E-4,0
