CUBEBUG-2 (LO-74)       
1 39440U 13066AA  26193.85098882  .00001863  00000+0  17551-3 0  9994
2 39440  97.8909 142.9428 0055957 303.3134  56.2734 14.93957370680821
FUNCUBE-1 (AO-73)       
1 39444U 13066AE  26194.17185029  .00003608  00000+0  22375-3 0  9993
2 39444  97.8287 166.1678 0038087 114.1842 246.3375 15.09803151683582
UWE-3                   
1 39446U 13066AG  26193.81399014  .00001937  00000+0  16916-3 0  9993
2 39446  97.8701 150.0656 0047510 232.8178 126.8701 14.97190018681416
UNISAT-6                
1 40012U 14033C   26193.88297014  .00001227  00000+0  13623-3 0  9997
2 40012  97.7905 346.1482 0044363 345.5085  14.4856 14.88361311649984
DUCHIFAT-1              
1 40021U 14033M   26193.68571963  .00110396  00000+0  89146-3 0  9994
2 40021  98.0440 256.5455 0002165 257.9613 102.1405 15.70510170659744
QB50P1                  
1 40025U 14033R   26193.52077436  .00005256  00000+0  25721-3 0  9994
2 40025  98.0964 206.4495 0010219 132.7489 227.4606 15.18640557656877
LILACSAT-2              
1 40908U 15049K   26194.12888029  .00013981  00000+0  23108-3 0  9998
2 40908  97.4628 231.9669 0008311 147.6157 212.5607 15.52311534599779
FOX-1A (AO-85)          
1 40967U 15058D   26194.04120422  .00001677  00000+0  15828-3 0  9999
2 40967  64.7723 198.6294 0132177  46.6278 314.5753 14.91080547117422
CAS-2T & KS-1Q          
1 41847U 16066G   26194.21207593  .00000617  00000+0  94682-4 0  9990
2 41847  98.3814 269.6505 0342350  50.7667 312.3386 14.44767960508557
RADFXSAT (FOX-1B)       
1 43017U 17073E   26194.06889024  .00003953  00000+0  17410-3 0  9997
2 43017  97.4673  60.7567 0148137 238.8927 119.7700 15.13044164469303
DIWATA-2B               
1 43678U 18084H   26194.17713477  .00001248  00000+0  10397-3 0  9995
2 43678  98.1217  31.5237 0012938  90.5181 269.7524 15.00558666420111
ES'HAIL 2               
1 43700U 18090A   26194.13840058  .00000142  00000+0  00000+0 0  9998
2 43700   0.0040 120.2823 0002215  40.4145 205.9303  1.00269840 27939
FOX-1CLIFF (AO-95)      
1 43770U 18099N   26194.15889185  .00007642  00000+0  28877-3 0  9998
2 43770  97.4377 254.3164 0007100 248.3656 111.6827 15.27248870417188
ITASAT                  
1 43786U 18099AE  26194.10440875  .00004125  00000+0  19803-3 0  9991
2 43786  97.4018 245.1016 0010798 258.8383 101.1638 15.19367142416842
JY1SAT (JO-97)          
1 43803U 18099AX  26192.68722269  .00009972  00000+0  30109-3 0  9999
2 43803  97.4124 255.6172 0006517 168.9842 191.1545 15.34443331417382
UWE-4                   
1 43880U 18111E   26193.76628622  .00027634  00000+0  53442-3 0  9997
2 43880  97.5844 123.3656 0005747 204.5147 155.5830 15.47716069414736
TIANYAN 01              
1 44881U 19093C   26194.16166469  .00000945  00000+0  11257-3 0  9994
2 44881  97.7529 265.7591 0013763   8.2736 351.8704 14.86560529355273
RS-44 & BREEZE-KM R/B   
1 44909U 19096E   26193.88299728  .00000001  00000+0 -49149-4 0  9997
2 44909  82.5240 322.6303 0218557  84.3723 278.2256 12.79748948305631
SALSAT                  
1 46495U 20068K   26193.91391395  .00004828  00000+0  16824-3 0  9990
2 46495  97.8853 198.5521 0008922 201.3461 158.7407 15.30153171319292
XW-3 (CAS-9)            
1 50466U 21131B   26194.22542285  .00000213  00000+0  79509-4 0  9990
2 50466  98.4989 286.4747 0004694  35.9250 324.2254 14.41380601238862
GREENCUBE (IO-117)      
1 53109U 22080E   26193.70867103 -.00000003  00000+0  00000+0 0  9995
2 53109  70.1415 289.3709 0009030 284.1311  75.8345  6.42583319 93700
UMKA 1 (RS40S)          
1 57172U 23091G   26194.14660691  .00003475  00000+0  15910-3 0  9999
2 57172  97.5041 252.7464 0013242  36.2693 323.9437 15.21108182167959
CUBESX-HSE 3 (RS42S)    
1 57178U 23091N   26194.11213247  .00008674  00000+0  28420-3 0  9999
2 57178  97.5085 260.0360 0009890   9.4843 350.6583 15.31853672168393
MONITOR-3 (RS58S)       
1 57180U 23091Q   26194.12943279  .00006838  00000+0  25002-3 0  9991
2 57180  97.5076 257.7725 0011220  17.0405 343.1208 15.28349170168258
MONITOR-4 (RS57S)       
1 57182U 23091S   26194.10704561  .00006789  00000+0  24763-3 0  9998
2 57182  97.5070 257.7225 0011218  17.3726 342.7895 15.28435184168253
MONITOR-2 (RS39S)       
1 57184U 23091U   26194.20092363  .00002731  00000+0  13311-3 0  9991
2 57184  97.5062 252.3172 0011590  30.5629 329.6278 15.19143640167903
SVYATOBOR 1 (RS60S)     
1 57187U 23091X   26194.14308310  .00005661  00000+0  21600-3 0  9994
2 57187  97.5083 258.1088 0008955  11.9442 348.2008 15.27043307168273
VIZARD-METEO (RS38S)    
1 57189U 23091Z   26194.13357611  .00011980  00000+0  33479-3 0  9991
2 57189  97.5087 264.1515 0005843 348.1559  11.9547 15.36834982168671
POLYTECH-UNIVERSE 3 (R*)
1 57191U 23091AB  26194.09286657  .00003090  00000+0  14900-3 0  9991
2 57191  97.5037 251.7139 0016238  44.6127 315.6411 15.19355584167885
UTMN 2 (RS27S)          
1 57203U 23091AP  26194.11573808  .00008543  00000+0  27312-3 0  9994
2 57203  97.5081 261.7050 0006937 357.9627   2.1585 15.32672034168519
